{
    "CCSDS_OMM_VERS": "3.0",
    "COMMENT": "GENERATED VIA SPACE-TRACK.ORG API",
    "CREATION_DATE": "2025-05-21T17:16:54",
    "ORIGINATOR": "18 SPCS",
    "OBJECT_NAME": "BEIDOU 3M5",
    "OBJECT_ID": "2018-018A",
    "CENTER_NAME": "EARTH",
    "REF_FRAME": "TEME",
    "TIME_SYSTEM": "UTC",
    "MEAN_ELEMENT_THEORY": "SGP4",
    "EPOCH": "2025-05-21T05:22:53.794272",
    "MEAN_MOTION": "1.86231088",
    "ECCENTRICITY": "0.00075270",
    "INCLINATION": "56.3061",
    "RA_OF_ASC_NODE": "76.1084",
    "ARG_OF_PERICENTER": "0.5949",
    "MEAN_ANOMALY": "359.3907",
    "EPHEMERIS_TYPE": "0",
    "CLASSIFICATION_TYPE": "U",
    "NORAD_CAT_ID": "43207",
    "ELEMENT_SET_NO": "999",
    "REV_AT_EPOCH": "4944",
    "BSTAR": "0.00000000000000",
    "MEAN_MOTION_DOT": "-0.00000008",
    "MEAN_MOTION_DDOT": "0.0000000000000",
    "SEMIMAJOR_AXIS": "27906.180",
    "PERIOD": "773.233",
    "APOAPSIS": "21549.050",
    "PERIAPSIS": "21507.040",
    "OBJECT_TYPE": "PAYLOAD",
    "RCS_SIZE": "LARGE",
    "COUNTRY_CODE": "PRC",
    "LAUNCH_DATE": "2018-02-12",
    "SITE": "XSC",
    "DECAY_DATE": null,
    "FILE": "4735227",
    "GP_ID": "288092082",
    "TLE_LINE0": "0 BEIDOU 3M5",
    "TLE_LINE1": "1 43207U 18018A   25141.22423373 -.00000008  00000-0  00000-0 0  9992",
    "TLE_LINE2": "2 43207  56.3061  76.1084 0007527   0.5949 359.3907  1.86231088 49447"
}